CCSDS_OMM_VERS = 2.0
CREATION_DATE  = 
ORIGINATOR     = 

OBJECT_NAME    = SHIJIAN-29A (SJ-29A)
OBJECT_ID      = 2025-315A
CENTER_NAME    = EARTH
REF_FRAME      = TEME
TIME_SYSTEM    = UTC
MEAN_ELEMENT_THEORY = SGP/SGP4

EPOCH          = 2026-01-18T22:53:07.165824
MEAN_MOTION    = 1.00271394
ECCENTRICITY   = .00015231
INCLINATION    = 3.0192
RA_OF_ASC_NODE = 99.0785
ARG_OF_PERICENTER = 304.5522
MEAN_ANOMALY   = 131.0271

EPHEMERIS_TYPE = 0
CLASSIFICATION_TYPE = U
NORAD_CAT_ID   = 67302
ELEMENT_SET_NO = 999
REV_AT_EPOCH   = 12
BSTAR          = 0
MEAN_MOTION_DOT = -.53E-6
MEAN_MOTION_DDOT = 0

CCSDS_OMM_VERS = 2.0
CREATION_DATE  = 
ORIGINATOR     = 

OBJECT_NAME    = CZ-7A R/B
OBJECT_ID      = 2025-315B
CENTER_NAME    = EARTH
REF_FRAME      = TEME
TIME_SYSTEM    = UTC
MEAN_ELEMENT_THEORY = SGP/SGP4

EPOCH          = 2026-01-18T17:10:45.833664
MEAN_MOTION    = 2.44248073
ECCENTRICITY   = .71888649
INCLINATION    = 19.5744
RA_OF_ASC_NODE = 92.6928
ARG_OF_PERICENTER = 193.3678
MEAN_ANOMALY   = 125.6800

EPHEMERIS_TYPE = 0
CLASSIFICATION_TYPE = U
NORAD_CAT_ID   = 67303
ELEMENT_SET_NO = 999
REV_AT_EPOCH   = 46
BSTAR          = .3382162E-2
MEAN_MOTION_DOT = .121347E-2
MEAN_MOTION_DDOT = .121029E-5

CCSDS_OMM_VERS = 2.0
CREATION_DATE  = 
ORIGINATOR     = 

OBJECT_NAME    = CSG-3
OBJECT_ID      = 2026-001A
CENTER_NAME    = EARTH
REF_FRAME      = TEME
TIME_SYSTEM    = UTC
MEAN_ELEMENT_THEORY = SGP/SGP4

EPOCH          = 2026-01-18T22:28:11.455680
MEAN_MOTION    = 14.82509238
ECCENTRICITY   = .00016235
INCLINATION    = 97.8446
RA_OF_ASC_NODE = 204.7523
ARG_OF_PERICENTER = 88.9204
MEAN_ANOMALY   = 271.2195

EPHEMERIS_TYPE = 0
CLASSIFICATION_TYPE = U
NORAD_CAT_ID   = 67304
ELEMENT_SET_NO = 999
REV_AT_EPOCH   = 235
BSTAR          = .55483401E-4
MEAN_MOTION_DOT = .394E-5
MEAN_MOTION_DDOT = 0

CCSDS_OMM_VERS = 2.0
CREATION_DATE  = 
ORIGINATOR     = 

OBJECT_NAME    = STARLINK-36490
OBJECT_ID      = 2026-002A
CENTER_NAME    = EARTH
REF_FRAME      = TEME
TIME_SYSTEM    = UTC
MEAN_ELEMENT_THEORY = SGP/SGP4

EPOCH          = 2026-01-18T22:00:03.000096
MEAN_MOTION    = 15.77505193
ECCENTRICITY   = .00016998
INCLINATION    = 42.9972
RA_OF_ASC_NODE = 251.8093
ARG_OF_PERICENTER = 270.8213
MEAN_ANOMALY   = 119.7105

EPHEMERIS_TYPE = 0
CLASSIFICATION_TYPE = U
NORAD_CAT_ID   = 67305
ELEMENT_SET_NO = 999
REV_AT_EPOCH   = 347
BSTAR          = -.93501715E-2
MEAN_MOTION_DOT = -.1420486E-1
MEAN_MOTION_DDOT = 0

CCSDS_OMM_VERS = 2.0
CREATION_DATE  = 
ORIGINATOR     = 

OBJECT_NAME    = STARLINK-36488
OBJECT_ID      = 2026-002B
CENTER_NAME    = EARTH
REF_FRAME      = TEME
TIME_SYSTEM    = UTC
MEAN_ELEMENT_THEORY = SGP/SGP4

EPOCH          = 2026-01-18T22:00:03.000096
MEAN_MOTION    = 15.77476654
ECCENTRICITY   = .00016694
INCLINATION    = 42.9972
RA_OF_ASC_NODE = 251.8042
ARG_OF_PERICENTER = 278.7754
MEAN_ANOMALY   = 113.7719

EPHEMERIS_TYPE = 0
CLASSIFICATION_TYPE = U
NORAD_CAT_ID   = 67306
ELEMENT_SET_NO = 999
REV_AT_EPOCH   = 341
BSTAR          = -.94386754E-2
MEAN_MOTION_DOT = -.1430734E-1
MEAN_MOTION_DDOT = 0

CCSDS_OMM_VERS = 2.0
CREATION_DATE  = 
ORIGINATOR     = 

OBJECT_NAME    = STARLINK-36481
OBJECT_ID      = 2026-002C
CENTER_NAME    = EARTH
REF_FRAME      = TEME
TIME_SYSTEM    = UTC
MEAN_ELEMENT_THEORY = SGP/SGP4

EPOCH          = 2026-01-18T22:00:03.000096
MEAN_MOTION    = 15.77325352
ECCENTRICITY   = .00016805
INCLINATION    = 42.9978
RA_OF_ASC_NODE = 251.7933
ARG_OF_PERICENTER = 275.2242
MEAN_ANOMALY   = 121.6067

EPHEMERIS_TYPE = 0
CLASSIFICATION_TYPE = U
NORAD_CAT_ID   = 67307
ELEMENT_SET_NO = 999
REV_AT_EPOCH   = 341
BSTAR          = -.95644962E-2
MEAN_MOTION_DOT = -.1438875E-1
MEAN_MOTION_DDOT = 0

CCSDS_OMM_VERS = 2.0
CREATION_DATE  = 
ORIGINATOR     = 

OBJECT_NAME    = STARLINK-36449
OBJECT_ID      = 2026-002D
CENTER_NAME    = EARTH
REF_FRAME      = TEME
TIME_SYSTEM    = UTC
MEAN_ELEMENT_THEORY = SGP/SGP4

EPOCH          = 2026-01-18T22:00:03.000096
MEAN_MOTION    = 15.77267651
ECCENTRICITY   = .00015739
INCLINATION    = 42.9973
RA_OF_ASC_NODE = 251.7873
ARG_OF_PERICENTER = 274.5305
MEAN_ANOMALY   = 124.3912

EPHEMERIS_TYPE = 0
CLASSIFICATION_TYPE = U
NORAD_CAT_ID   = 67308
ELEMENT_SET_NO = 999
REV_AT_EPOCH   = 347
BSTAR          = -.96630218E-2
MEAN_MOTION_DOT = -.1448562E-1
MEAN_MOTION_DDOT = 0

CCSDS_OMM_VERS = 2.0
CREATION_DATE  = 
ORIGINATOR     = 

OBJECT_NAME    = STARLINK-36482
OBJECT_ID      = 2026-002E
CENTER_NAME    = EARTH
REF_FRAME      = TEME
TIME_SYSTEM    = UTC
MEAN_ELEMENT_THEORY = SGP/SGP4

EPOCH          = 2026-01-18T22:00:03.000096
MEAN_MOTION    = 15.76879736
ECCENTRICITY   = .00017508
INCLINATION    = 42.9981
RA_OF_ASC_NODE = 251.7627
ARG_OF_PERICENTER = 279.7577
MEAN_ANOMALY   = 129.6656

EPHEMERIS_TYPE = 0
CLASSIFICATION_TYPE = U
NORAD_CAT_ID   = 67309
ELEMENT_SET_NO = 999
REV_AT_EPOCH   = 341
BSTAR          = -.9727026E-2
MEAN_MOTION_DOT = -.1434822E-1
MEAN_MOTION_DDOT = 0

CCSDS_OMM_VERS = 2.0
CREATION_DATE  = 
ORIGINATOR     = 

OBJECT_NAME    = STARLINK-36491
OBJECT_ID      = 2026-002F
CENTER_NAME    = EARTH
REF_FRAME      = TEME
TIME_SYSTEM    = UTC
MEAN_ELEMENT_THEORY = SGP/SGP4

EPOCH          = 2026-01-18T22:00:03.000096
MEAN_MOTION    = 15.77349390
ECCENTRICITY   = .00017134
INCLINATION    = 42.9981
RA_OF_ASC_NODE = 251.7988
ARG_OF_PERICENTER = 275.6474
MEAN_ANOMALY   = 119.1982

EPHEMERIS_TYPE = 0
CLASSIFICATION_TYPE = U
NORAD_CAT_ID   = 67310
ELEMENT_SET_NO = 999
REV_AT_EPOCH   = 341
BSTAR          = -.95716396E-2
MEAN_MOTION_DOT = -.1441229E-1
MEAN_MOTION_DDOT = 0

CCSDS_OMM_VERS = 2.0
CREATION_DATE  = 
ORIGINATOR     = 

OBJECT_NAME    = STARLINK-36495
OBJECT_ID      = 2026-002G
CENTER_NAME    = EARTH
REF_FRAME      = TEME
TIME_SYSTEM    = UTC
MEAN_ELEMENT_THEORY = SGP/SGP4

EPOCH          = 2026-01-18T22:00:03.000096
MEAN_MOTION    = 15.77177775
ECCENTRICITY   = .00016601
INCLINATION    = 42.9973
RA_OF_ASC_NODE = 251.7823
ARG_OF_PERICENTER = 279.7789
MEAN_ANOMALY   = 121.3105

EPHEMERIS_TYPE = 0
CLASSIFICATION_TYPE = U
NORAD_CAT_ID   = 67311
ELEMENT_SET_NO = 999
REV_AT_EPOCH   = 357
BSTAR          = -.98350736E-2
MEAN_MOTION_DOT = -.1466106E-1
MEAN_MOTION_DDOT = 0

CCSDS_OMM_VERS = 2.0
CREATION_DATE  = 
ORIGINATOR     = 

OBJECT_NAME    = STARLINK-36485
OBJECT_ID      = 2026-002H
CENTER_NAME    = EARTH
REF_FRAME      = TEME
TIME_SYSTEM    = UTC
MEAN_ELEMENT_THEORY = SGP/SGP4

EPOCH          = 2026-01-18T22:00:03.000096
MEAN_MOTION    = 15.77013363
ECCENTRICITY   = .0001485
INCLINATION    = 42.9974
RA_OF_ASC_NODE = 251.7771
ARG_OF_PERICENTER = 276.8556
MEAN_ANOMALY   = 126.4485

EPHEMERIS_TYPE = 0
CLASSIFICATION_TYPE = U
NORAD_CAT_ID   = 67312
ELEMENT_SET_NO = 999
REV_AT_EPOCH   = 341
BSTAR          = -.91242895E-2
MEAN_MOTION_DOT = -.1362684E-1
MEAN_MOTION_DDOT = 0

CCSDS_OMM_VERS = 2.0
CREATION_DATE  = 
ORIGINATOR     = 

OBJECT_NAME    = STARLINK-36445
OBJECT_ID      = 2026-002J
CENTER_NAME    = EARTH
REF_FRAME      = TEME
TIME_SYSTEM    = UTC
MEAN_ELEMENT_THEORY = SGP/SGP4

EPOCH          = 2026-01-18T22:00:03.000096
MEAN_MOTION    = 15.77012984
ECCENTRICITY   = .00016484
INCLINATION    = 42.9973
RA_OF_ASC_NODE = 251.7714
ARG_OF_PERICENTER = 277.9554
MEAN_ANOMALY   = 127.2698

EPHEMERIS_TYPE = 0
CLASSIFICATION_TYPE = U
NORAD_CAT_ID   = 67313
ELEMENT_SET_NO = 999
REV_AT_EPOCH   = 357
BSTAR          = -.9138984E-2
MEAN_MOTION_DOT = -.1364714E-1
MEAN_MOTION_DDOT = 0

