SHIJIAN-29A (SJ-29A)    
1 67302U 25315A   26018.95355516 -.00000053  00000+0  00000+0 0  9997
2 67302   3.0192  99.0785 0001523 304.5522 131.0271  1.00271394   120
CZ-7A R/B               
1 67303U 25315B   26018.71580826  .00121347  12103-5  33822-2 0  9999
2 67303  19.5744  92.6928 7188864 193.3678 125.6800  2.44248073   462
CSG-3                   
1 67304U 26001A   26018.93624370  .00000394  00000+0  55483-4 0  9994
2 67304  97.8446 204.7523 0001623  88.9204 271.2195 14.82509238  2355
STARLINK-36490          
1 67305U 26002A   26018.91670139 -.01420486  00000+0 -93502-2 0  9991
2 67305  42.9972 251.8093 0001699 270.8213 119.7105 15.77505193  3473
STARLINK-36488          
1 67306U 26002B   26018.91670139 -.01430734  00000+0 -94387-2 0  9991
2 67306  42.9972 251.8042 0001669 278.7754 113.7719 15.77476654  3410
STARLINK-36481          
1 67307U 26002C   26018.91670139 -.01438875  00000+0 -95645-2 0  9994
2 67307  42.9978 251.7933 0001680 275.2242 121.6067 15.77325352  3414
STARLINK-36449          
1 67308U 26002D   26018.91670139 -.01448562  00000+0 -96630-2 0  9994
2 67308  42.9973 251.7873 0001573 274.5305 124.3912 15.77267651  3478
STARLINK-36482          
1 67309U 26002E   26018.91670139 -.01434822  00000+0 -97270-2 0  9990
2 67309  42.9981 251.7627 0001750 279.7577 129.6656 15.76879736  3419
STARLINK-36491          
1 67310U 26002F   26018.91670139 -.01441229  00000+0 -95716-2 0  9994
2 67310  42.9981 251.7988 0001713 275.6474 119.1982 15.77349390  3416
STARLINK-36495          
1 67311U 26002G   26018.91670139 -.01466106  00000+0 -98351-2 0  9994
2 67311  42.9973 251.7823 0001660 279.7789 121.3105 15.77177775  3576
STARLINK-36485          
1 67312U 26002H   26018.91670139 -.01362684  00000+0 -91243-2 0  9994
2 67312  42.9974 251.7771 0001485 276.8556 126.4485 15.77013363  3417
STARLINK-36445          
1 67313U 26002J   26018.91670139 -.01364714  00000+0 -91390-2 0  9994
2 67313  42.9973 251.7714 0001648 277.9554 127.2698 15.77012984  3575
